STARLINK-2335
1 17878C 21021U   21326.19531824  .00042110  00000-0  28212-2 0  3266
2 17878  53.0551 112.8671 0001277  82.2321 337.1691 15.06359864    14
